E-ST@R-II               
1 41459U 16025D   22128.14957902  .00011243  00000+0  49374-3 0  9999
2 41459  98.1821 290.3501 0148002  46.5965 314.7428 15.12698999331403
AAUSAT 4                
1 41460U 16025E   22128.21828770  .00016133  00000+0  63751-3 0  9997
2 41460  98.1768 296.2735 0129348  23.4318 337.2624 15.18095362331833
BEESAT-4                
1 41619U 16040W   22128.10399839  .00014670  00000+0  50815-3 0  9998
2 41619  97.2207 179.8356 0008148 253.5825 106.4520 15.29912038314556
RAVAN                   
1 41849U 16067B   22127.83604435  .00003722  00000+0  30018-3 0  9991
2 41849  97.9950 263.6594 0017237 109.2382 251.0708 15.00427238299901
CELTEE 1                
1 41850U 16067C   22127.84439723  .00003021  00000+0  25913-3 0  9990
2 41850  97.9913 258.8772 0010533 110.5119 249.7234 14.98263874299673
OPTICUBE 04             
1 41851U 16067D   22127.87410641  .00000893  00000+0  81571-4 0  9999
2 41851  97.9897 258.0132 0009570 112.4665 247.7571 14.97650278299638
AEROCUBE 8D             
1 41852U 16067E   22127.83089210  .00002803  00000+0  24167-3 0  9990
2 41852  97.9878 257.9413 0010786 115.5345 244.6993 14.98126573299617
AEROCUBE 8C             
1 41853U 16067F   22127.87792234  .00002256  00000+0  19569-3 0  9994
2 41853  97.9874 257.8196 0010233 115.4967 244.7314 14.98098576299616
PROMETHEUS 2-1          
1 41854U 16067G   22127.87620081  .00003629  00000+0  30349-3 0  9999
2 41854  97.9884 258.8105 0009647 112.9713 247.2527 14.99112832299669
PROMETHEUS 2-3          
1 41855U 16067H   22127.86943787  .00003439  00000+0  28765-3 0  9998
2 41855  97.9904 258.8795 0010309 109.3285 250.9052 14.99146638299664
INS-1B                  
1 41954U 17008G   22128.11304558  .00014193  00000+0  48468-3 0  9991
2 41954  97.2607 188.8557 0007986  32.2016 327.9712 15.30384762290575
BGUSAT                  
1 41999U 17008BD  22128.17580974  .00038143  00000+0  10080-2 0  9993
2 41999  97.2831 198.7877 0005102  32.0705 328.0850 15.38316733290441
DIDO-2                  
1 42000U 17008BE  22127.69815236  .00009327  00000+0  34405-3 0  9995
2 42000  97.2595 188.0279 0008632  53.6145 306.5890 15.27962501289843
PEASSS                  
1 42015U 17008BV  22128.14169912  .00013378  00000+0  45350-3 0  9997
2 42015  97.2658 192.0575 0006222  52.4045 307.7760 15.30648337290609
AL-FARABI 1             
1 42016U 17008BW  22128.16790510  .00018841  00000+0  58988-3 0  9995
2 42016  97.2720 194.8897 0005516  50.0017 310.1709 15.33137689290871
NAYIF-1 (EO-88)         
1 42017U 17008BX  22128.12091576  .00016964  00000+0  52966-3 0  9992
2 42017  97.2712 194.8521 0005591  49.1644 311.0083 15.33247225290890
UCLSAT                  
1 42765U 17036A   22128.08310880  .00013233  00000+0  47527-3 0  9993
2 42765  97.2015 172.0299 0011659 107.9762 252.2750 15.28716855271094
LITUANICASAT-2          
1 42768U 17036D   22128.10418176  .00026877  00000+0  83020-3 0  9992
2 42768  97.2100 174.3801 0013081  96.6447 263.6285 15.33425710271060
AALTO-1                 
1 42775U 17036L   22127.82622244  .00007224  00000+0  29130-3 0  9998
2 42775  97.2018 167.0973 0014630 109.2136 251.0686 15.25006311270587
URSA MAIOR              
1 42776U 17036M   22127.68988790  .00009714  00000+0  38503-3 0  9994
2 42776  97.2033 167.6553 0014315 108.8889 251.3903 15.25497870270595
COMPASS 2               
1 42777U 17036N   22128.12346743  .00018185  00000+0  60710-3 0  9998
2 42777  97.2087 173.9426 0011945  98.8183 261.4411 15.31025939270973
DIAMOND RED             
1 42783U 17036U   22128.08826164  .00008478  00000+0  32455-3 0  9999
2 42783  97.2037 170.2854 0012611 112.0901 248.1679 15.26716880270781
PEGASUS                 
1 42784U 17036V   22128.11375530  .00011855  00000+0  43617-3 0  9995
2 42784  97.2033 171.3686 0012379 110.2663 249.9909 15.27941780270852
DIAMOND GREEN           
1 42785U 17036W   22128.08704310  .00009450  00000+0  36127-3 0  9990
2 42785  97.2040 170.3469 0012569 112.9413 247.3154 15.26730683270774
DIAMOND BLUE            
1 42786U 17036X   22128.08573912  .00009215  00000+0  35225-3 0  9990
2 42786  97.2039 170.3386 0012513 113.3128 246.9429 15.26741837270771
NUDTSAT                 
1 42787U 17036Y   22127.95691953  .00018853  00000+0  61045-3 0  9999
2 42787  97.2059 175.0257 0011048 103.0667 257.1809 15.32014395270897
SUCHAI                  
1 42788U 17036Z   22128.08817126  .00014524  00000+0  50941-3 0  9991
2 42788  97.2041 172.8707 0011707 106.9535 253.2990 15.29472691271018
SKCUBE                  
1 42789U 17036AA  22127.87019380  .00013844  00000+0  49525-3 0  9994
2 42789  97.2040 172.1704 0011714 108.1916 252.0601 15.28837191270871
VZLUSAT-1               
1 42790U 17036AB  22127.63470782  .00025445  00000+0  82508-3 0  9995
2 42790  97.2064 174.6876 0010568 103.7107 256.5312 15.31912110270995
ROBUSTA-1B              
1 42792U 17036AD  22128.10029984  .00013114  00000+0  46277-3 0  9997
2 42792  97.2036 172.9267 0011315 107.5456 252.7022 15.29301683270957
CICERO 6                
1 42793U 17036AE  22127.84459631  .00008375  00000+0  32113-3 0  9991
2 42793  97.2015 170.6159 0011085 112.4334 247.8081 15.26683794270878
CORVUS BC2              
1 42846U 17042X   22127.86380798  .00000860  00000+0  88207-4 0  9993
2 42846  97.4285 347.4617 0010703 127.0056 233.2145 14.92773275262226
CORVUS BC1              
1 42847U 17042Y   22127.88025676  .00001360  00000+0  13618-3 0  9996
2 42847  97.4286 347.7757 0010382 125.9665 234.2520 14.92878726262238
MIRATA                  
1 43015U 17073C   22127.68905052  .00008458  00000+0  62188-3 0  9992
2 43015  97.6773  24.5129 0239404 315.4476  42.7707 14.83485818241227
MAKERSAT 0              
1 43016U 17073D   22127.67609779  .00006564  00000+0  49227-3 0  9994
2 43016  97.6797  24.1686 0245848 319.4307  38.8807 14.81958737241156
AEROCUBE 7B (OCSD B)    
1 43042U 17071F   22128.05243373  .00132953  00000+0  10659-2 0  9996
2 43042  51.6325 250.7141 0005233 329.5229  30.5463 15.70081496249324
AEROCUBE 7C (OCSD C)    
1 43043U 17071G   22127.78742377  .00120363  00000+0  10244-2 0  9996
2 43043  51.6314 253.4118 0004547 328.7868  31.2858 15.68685532249238
ASGARDIA 1              
1 43049U 17071N   22128.06806850  .00094727  00000+0  90369-3 0  9992
2 43049  51.6329 253.2294 0003806 315.6652  44.4038 15.65982335249252
PROPCUBE 2 (FAUNA)      
1 43052U 17071R   22128.04047662  .00138944  00000+0  10694-2 0  9994
2 43052  51.6287 245.4776 0005487 321.9590  38.1020 15.71035807249357
CORVUS BC3              
1 43118U 18004H   22127.67630135  .00009797  00000+0  37515-3 0  9990
2 43118  97.3637 200.9224 0010541 141.3619 218.8376 15.26698302239998
MICROMAS-2A             
1 43131U 18004W   22128.20555938  .00031932  00000+0  96161-3 0  9990
2 43131  97.3760 207.4428 0008166 132.7784 227.4147 15.34250347240407
SPACEBEE-4              
1 43139U 18004AE  22128.21439945  .00050106  00000+0  12233-2 0  9999
2 43139  97.3851 211.8529 0006728 133.6395 226.5410 15.40669949240634
SPACEBEE-3              
1 43140U 18004AF  22127.73579005  .00112457  00000+0  21527-2 0  9993
2 43140  97.3893 214.5494 0005111 142.4305 217.7303 15.47629454240757
SPACEBEE-2              
1 43141U 18004AG  22128.21236031  .00118698  00000+0  20393-2 0  9990
2 43141  97.3915 216.2814 0004387 150.8400 209.3097 15.50705387240897
SPACEBEE-1              
1 43142U 18004AH  22127.82090016  .00145718  00000+0  21510-2 0  9993
2 43142  97.3918 217.2358 0003211 165.2782 194.8566 15.54843702240902
CICERO 7                
1 43143U 18004AJ  22128.18905454  .00016602  00000+0  53381-3 0  9996
2 43143  97.3736 207.1192 0007138 137.4987 222.6809 15.32304211240403
GOMX-4B                 
1 43196U 18015E   22127.84803777  .00006364  00000+0  24576-3 0  9991
2 43196  97.5275 266.8826 0017287 195.7170 164.3534 15.26491922236966
GOMX-4A                 
1 43197U 18015F   22128.20622950  .00008998  00000+0  32971-3 0  9998
2 43197  97.5273 267.9382 0017129 194.5213 287.9517 15.28104750237072
AEROCUBE 12A            
1 43556U 18046C   22127.97037410  .00021803  00000+0  58948-3 0  9997
2 43556  51.6392  20.9867 0006061 239.7967 120.2416 15.37632754213082
AEROCUBE 12B            
1 43557U 18046D   22128.12162679  .00018176  00000+0  51846-3 0  9991
2 43557  51.6400  24.1837 0006302 239.0798 120.9566 15.36087252213000
SURFSAT                 
1 43614U 18070B   22128.13111499  .00036118  00000+0  59717-3 0  9998
2 43614  93.0294  81.6639 0012677 156.4854 203.6989 15.52012748204802
CP7 (DAVE)              
1 43615U 18070C   22127.85440669  .00037449  00000+0  63932-3 0  9993
2 43615  93.0298  81.4279 0012813 158.4207 201.7596 15.51106817204736
ELFIN-B                 
1 43616U 18070D   22128.14115419  .00085118  00000+0  10088-2 0  9998
2 43616  93.0203  82.4913 0013034 145.3630 214.8488 15.60852439205059
ELFIN-A                 
1 43617U 18070E   22128.12968454  .00078734  00000+0  87918-3 0  9995
2 43617  93.0277  83.7463 0012781 140.0021 220.2189 15.62423832205095
CUBEBEL-1 (BSUSAT-1)    
1 43666U 18083E   22128.04853594  .00009505  00000+0  41269-3 0  9991
2 43666  97.4239 157.2055 0015366 113.1083 330.8947 15.22424105195335
CICERO 10               
1 43690U 18088A   22128.06564399  .00008347  00000+0  34104-3 0  9990
2 43690  85.0372 343.1427 0011515 301.6434  58.3685 15.24154035193588
IRVINE01                
1 43693U 18088D   22128.08393946  .00031043  00000+0  91307-3 0  9990
2 43693  85.0304 338.1642 0010980 257.4056 102.5965 15.34884756194026
PROXIMA I               
1 43694U 18088E   22127.87059566  .00007967  00000+0  30990-3 0  9993
2 43694  85.0304 340.0643 0015063 263.2214  96.7316 15.25745349193777
PROXIMA II              
1 43696U 18088G   22127.60791018  .00009683  00000+0  37707-3 0  9991
2 43696  85.0304 340.2556 0015077 264.3753  95.5772 15.25729476193731
